[{"OBJECT_NAME":"SJ-11-05","OBJECT_ID":"2013-035A","EPOCH":"2026-03-09T22:35:58.811424","MEAN_MOTION":14.64778924,"ECCENTRICITY":0.0009824,"INCLINATION":98.2837,"RA_OF_ASC_NODE":253.0653,"ARG_OF_PERICENTER":179.2606,"MEAN_ANOMALY":180.8612,"EPHEMERIS_TYPE":0,"CLASSIFICATION_TYPE":"U","NORAD_CAT_ID":39202,"ELEMENT_SET_NO":999,"REV_AT_EPOCH":67470,"BSTAR":0.00019288768,"MEAN_MOTION_DOT":9.8e-6,"MEAN_MOTION_DDOT":0},{"OBJECT_NAME":"YAOGAN-32 02A","OBJECT_ID":"2021-099A","EPOCH":"2026-03-09T22:33:38.098656","MEAN_MOTION":14.63972652,"ECCENTRICITY":0.00016236,"INCLINATION":98.2296,"RA_OF_ASC_NODE":202.7194,"ARG_OF_PERICENTER":131.3577,"MEAN_ANOMALY":228.7765,"EPHEMERIS_TYPE":0,"CLASSIFICATION_TYPE":"U","NORAD_CAT_ID":49383,"ELEMENT_SET_NO":999,"REV_AT_EPOCH":23184,"BSTAR":0.00047285778,"MEAN_MOTION_DOT":2.429e-5,"MEAN_MOTION_DDOT":0}]
